CCSDS_OMM_VERS = 2.0
CREATION_DATE  = 
ORIGINATOR     = 

OBJECT_NAME    = UNKNOWN
OBJECT_ID      = 
CENTER_NAME    = EARTH
REF_FRAME      = TEME
TIME_SYSTEM    = UTC
MEAN_ELEMENT_THEORY = SGP/SGP4

EPOCH          = 2025-12-10T20:24:23.315040
MEAN_MOTION    = 1.02662907
ECCENTRICITY   = .0232633
INCLINATION    = 5.7866
RA_OF_ASC_NODE = 297.5269
ARG_OF_PERICENTER = 273.3756
MEAN_ANOMALY   = 209.9168

EPHEMERIS_TYPE = 0
CLASSIFICATION_TYPE = U
NORAD_CAT_ID   = 83934
ELEMENT_SET_NO = 999
REV_AT_EPOCH   = 4526
BSTAR          = 0
MEAN_MOTION_DOT = -.109E-5
MEAN_MOTION_DDOT = 0

CCSDS_OMM_VERS = 2.0
CREATION_DATE  = 
ORIGINATOR     = 

OBJECT_NAME    = UNKNOWN
OBJECT_ID      = 
CENTER_NAME    = EARTH
REF_FRAME      = TEME
TIME_SYSTEM    = UTC
MEAN_ELEMENT_THEORY = SGP/SGP4

EPOCH          = 2026-01-05T01:48:15.515712
MEAN_MOTION    = 5.32405145
ECCENTRICITY   = .5068734
INCLINATION    = 18.2555
RA_OF_ASC_NODE = 192.7255
ARG_OF_PERICENTER = 193.4603
MEAN_ANOMALY   = 145.2261

EPHEMERIS_TYPE = 0
CLASSIFICATION_TYPE = U
NORAD_CAT_ID   = 83970
ELEMENT_SET_NO = 999
REV_AT_EPOCH   = 19745
BSTAR          = .87566E-2
MEAN_MOTION_DOT = .8157E-4
MEAN_MOTION_DDOT = 0

CCSDS_OMM_VERS = 2.0
CREATION_DATE  = 
ORIGINATOR     = 

OBJECT_NAME    = UNKNOWN
OBJECT_ID      = 
CENTER_NAME    = EARTH
REF_FRAME      = TEME
TIME_SYSTEM    = UTC
MEAN_ELEMENT_THEORY = SGP/SGP4

EPOCH          = 2026-01-02T22:01:24.243744
MEAN_MOTION    = 2.16233509
ECCENTRICITY   = .6154109
INCLINATION    = 22.4239
RA_OF_ASC_NODE = 173.2193
ARG_OF_PERICENTER = 68.1545
MEAN_ANOMALY   = 344.5354

EPHEMERIS_TYPE = 0
CLASSIFICATION_TYPE = U
NORAD_CAT_ID   = 84006
ELEMENT_SET_NO = 999
REV_AT_EPOCH   = 8468
BSTAR          = 0
MEAN_MOTION_DOT = .35E-6
MEAN_MOTION_DDOT = 0

CCSDS_OMM_VERS = 2.0
CREATION_DATE  = 
ORIGINATOR     = 

OBJECT_NAME    = UNKNOWN
OBJECT_ID      = 
CENTER_NAME    = EARTH
REF_FRAME      = TEME
TIME_SYSTEM    = UTC
MEAN_ELEMENT_THEORY = SGP/SGP4

EPOCH          = 2026-01-02T18:03:01.318176
MEAN_MOTION    = 7.75858607
ECCENTRICITY   = .3685565
INCLINATION    = 65.1377
RA_OF_ASC_NODE = 239.7836
ARG_OF_PERICENTER = 16.3679
MEAN_ANOMALY   = 352.9663

EPHEMERIS_TYPE = 0
CLASSIFICATION_TYPE = U
NORAD_CAT_ID   = 84188
ELEMENT_SET_NO = 999
REV_AT_EPOCH   = 4287
BSTAR          = .27745E+0
MEAN_MOTION_DOT = .647429E-2
MEAN_MOTION_DDOT = 0

CCSDS_OMM_VERS = 2.0
CREATION_DATE  = 
ORIGINATOR     = 

OBJECT_NAME    = UNKNOWN
OBJECT_ID      = 
CENTER_NAME    = EARTH
REF_FRAME      = TEME
TIME_SYSTEM    = UTC
MEAN_ELEMENT_THEORY = SGP/SGP4

EPOCH          = 2026-01-05T03:15:06.812064
MEAN_MOTION    = 3.17883590
ECCENTRICITY   = .6556067
INCLINATION    = 20.3078
RA_OF_ASC_NODE = 260.6966
ARG_OF_PERICENTER = 88.6938
MEAN_ANOMALY   = 339.8437

EPHEMERIS_TYPE = 0
CLASSIFICATION_TYPE = U
NORAD_CAT_ID   = 84232
ELEMENT_SET_NO = 999
REV_AT_EPOCH   = 10543
BSTAR          = .14269E-1
MEAN_MOTION_DOT = .17164E-3
MEAN_MOTION_DDOT = 0

CCSDS_OMM_VERS = 2.0
CREATION_DATE  = 
ORIGINATOR     = 

OBJECT_NAME    = UNKNOWN
OBJECT_ID      = 
CENTER_NAME    = EARTH
REF_FRAME      = TEME
TIME_SYSTEM    = UTC
MEAN_ELEMENT_THEORY = SGP/SGP4

EPOCH          = 2025-12-27T10:55:13.039392
MEAN_MOTION    = 2.62542961
ECCENTRICITY   = .6894476
INCLINATION    = 9.4326
RA_OF_ASC_NODE = 328.5336
ARG_OF_PERICENTER = 107.3134
MEAN_ANOMALY   = 334.0629

EPHEMERIS_TYPE = 0
CLASSIFICATION_TYPE = U
NORAD_CAT_ID   = 84236
ELEMENT_SET_NO = 999
REV_AT_EPOCH   = 11436
BSTAR          = .32331E-2
MEAN_MOTION_DOT = .387E-5
MEAN_MOTION_DDOT = 0

CCSDS_OMM_VERS = 2.0
CREATION_DATE  = 
ORIGINATOR     = 

OBJECT_NAME    = UNKNOWN
OBJECT_ID      = 
CENTER_NAME    = EARTH
REF_FRAME      = TEME
TIME_SYSTEM    = UTC
MEAN_ELEMENT_THEORY = SGP/SGP4

EPOCH          = 2025-12-19T10:19:54.388704
MEAN_MOTION    = 6.21548976
ECCENTRICITY   = .4565693
INCLINATION    = 23.8359
RA_OF_ASC_NODE = 151.0737
ARG_OF_PERICENTER = 256.1347
MEAN_ANOMALY   = 50.5562

EPHEMERIS_TYPE = 0
CLASSIFICATION_TYPE = U
NORAD_CAT_ID   = 84292
ELEMENT_SET_NO = 999
REV_AT_EPOCH   = 22848
BSTAR          = .13865E-2
MEAN_MOTION_DOT = .2611E-4
MEAN_MOTION_DDOT = 0

CCSDS_OMM_VERS = 2.0
CREATION_DATE  = 
ORIGINATOR     = 

OBJECT_NAME    = UNKNOWN
OBJECT_ID      = 
CENTER_NAME    = EARTH
REF_FRAME      = TEME
TIME_SYSTEM    = UTC
MEAN_ELEMENT_THEORY = SGP/SGP4

EPOCH          = 2026-01-02T15:50:48.452928
MEAN_MOTION    = 12.67372144
ECCENTRICITY   = .004134
INCLINATION    = 101.7163
RA_OF_ASC_NODE = 152.0732
ARG_OF_PERICENTER = 352.0148
MEAN_ANOMALY   = 37.5934

EPHEMERIS_TYPE = 0
CLASSIFICATION_TYPE = U
NORAD_CAT_ID   = 84406
ELEMENT_SET_NO = 999
REV_AT_EPOCH   = 5194
BSTAR          = .64536E-2
MEAN_MOTION_DOT = .1194E-4
MEAN_MOTION_DDOT = 0

CCSDS_OMM_VERS = 2.0
CREATION_DATE  = 
ORIGINATOR     = 

OBJECT_NAME    = UNKNOWN
OBJECT_ID      = 
CENTER_NAME    = EARTH
REF_FRAME      = TEME
TIME_SYSTEM    = UTC
MEAN_ELEMENT_THEORY = SGP/SGP4

EPOCH          = 2025-12-30T22:00:56.814336
MEAN_MOTION    = 2.05772993
ECCENTRICITY   = .7202613
INCLINATION    = 19.4743
RA_OF_ASC_NODE = 317.1469
ARG_OF_PERICENTER = 71.5981
MEAN_ANOMALY   = 349.8455

EPHEMERIS_TYPE = 0
CLASSIFICATION_TYPE = U
NORAD_CAT_ID   = 84407
ELEMENT_SET_NO = 999
REV_AT_EPOCH   = 7624
BSTAR          = -.11829E-1
MEAN_MOTION_DOT = -.178E-5
MEAN_MOTION_DDOT = 0

CCSDS_OMM_VERS = 2.0
CREATION_DATE  = 
ORIGINATOR     = 

OBJECT_NAME    = UNKNOWN
OBJECT_ID      = 
CENTER_NAME    = EARTH
REF_FRAME      = TEME
TIME_SYSTEM    = UTC
MEAN_ELEMENT_THEORY = SGP/SGP4

EPOCH          = 2025-12-28T18:20:05.187552
MEAN_MOTION    = 2.19885453
ECCENTRICITY   = .7101509
INCLINATION    = 18.0986
RA_OF_ASC_NODE = 153.2515
ARG_OF_PERICENTER = 32.2046
MEAN_ANOMALY   = 355.9427

EPHEMERIS_TYPE = 0
CLASSIFICATION_TYPE = U
NORAD_CAT_ID   = 84575
ELEMENT_SET_NO = 999
REV_AT_EPOCH   = 6581
BSTAR          = -.2223E-2
MEAN_MOTION_DOT = .26E-6
MEAN_MOTION_DDOT = 0

CCSDS_OMM_VERS = 2.0
CREATION_DATE  = 
ORIGINATOR     = 

OBJECT_NAME    = UNKNOWN
OBJECT_ID      = 
CENTER_NAME    = EARTH
REF_FRAME      = TEME
TIME_SYSTEM    = UTC
MEAN_ELEMENT_THEORY = SGP/SGP4

EPOCH          = 2026-01-05T13:31:49.354752
MEAN_MOTION    = 3.00000626
ECCENTRICITY   = .6577813
INCLINATION    = 2.0317
RA_OF_ASC_NODE = 229.9858
ARG_OF_PERICENTER = 82.2969
MEAN_ANOMALY   = 131.8376

EPHEMERIS_TYPE = 0
CLASSIFICATION_TYPE = U
NORAD_CAT_ID   = 84932
ELEMENT_SET_NO = 999
REV_AT_EPOCH   = 13249
BSTAR          = .10652E-1
MEAN_MOTION_DOT = .1394E-4
MEAN_MOTION_DDOT = 0

CCSDS_OMM_VERS = 2.0
CREATION_DATE  = 
ORIGINATOR     = 

OBJECT_NAME    = UNKNOWN
OBJECT_ID      = 
CENTER_NAME    = EARTH
REF_FRAME      = TEME
TIME_SYSTEM    = UTC
MEAN_ELEMENT_THEORY = SGP/SGP4

EPOCH          = 2026-01-04T18:20:34.255104
MEAN_MOTION    = 14.41151319
ECCENTRICITY   = .0048208
INCLINATION    = 98.4242
RA_OF_ASC_NODE = 340.4640
ARG_OF_PERICENTER = 92.9952
MEAN_ANOMALY   = 26.8824

EPHEMERIS_TYPE = 0
CLASSIFICATION_TYPE = U
NORAD_CAT_ID   = 85004
ELEMENT_SET_NO = 999
REV_AT_EPOCH   = 63421
BSTAR          = .57697E-3
MEAN_MOTION_DOT = .1843E-4
MEAN_MOTION_DDOT = 0

