UNKNOWN                 
1 83934U          25344.85026985 -.00000109  00000+0  00000+0 0  9997
2 83934   5.7866 297.5269 0232633 273.3756 209.9168  1.02662907 45268
UNKNOWN                 
1 83970U          26005.07517958  .00008157  00000+0  87566-2 0  9996
2 83970  18.2555 192.7255 5068734 193.4603 145.2261  5.32405145197451
UNKNOWN                 
1 84006U          26002.91764171  .00000035  00000+0  00000+0 0  9990
2 84006  22.4239 173.2193 6154109  68.1545 344.5354  2.16233509 84688
UNKNOWN                 
1 84188U          26002.75209859  .00647429  00000+0  27745+0 0  9999
2 84188  65.1377 239.7836 3685565  16.3679 352.9663  7.75858607 42876
UNKNOWN                 
1 84232U          26005.13549551  .00017164  00000+0  14269-1 0  9996
2 84232  20.3078 260.6966 6556067  88.6938 339.8437  3.17883590105437
UNKNOWN                 
1 84236U          25361.45501203  .00000387  00000+0  32331-2 0  9991
2 84236   9.4326 328.5336 6894476 107.3134 334.0629  2.62542961114361
UNKNOWN                 
1 84292U          25353.43049061  .00002611  00000+0  13865-2 0  9994
2 84292  23.8359 151.0737 4565693 256.1347  50.5562  6.21548976228482
UNKNOWN                 
1 84406U          26002.66028302  .00001194  00000+0  64536-2 0  9999
2 84406 101.7163 152.0732 0041340 352.0148  37.5934 12.67372144 51945
UNKNOWN                 
1 84407U          25364.91732424 -.00000178  00000+0 -11829-1 0  9994
2 84407  19.4743 317.1469 7202613  71.5981 349.8455  2.05772993 76247
UNKNOWN                 
1 84575U          25362.76394893  .00000026  00000+0 -22230-2 0  9995
2 84575  18.0986 153.2515 7101509  32.2046 355.9427  2.19885453 65815
UNKNOWN                 
1 84932U          26005.56376568  .00001394  00000+0  10652-1 0  9996
2 84932   2.0317 229.9858 6577813  82.2969 131.8376  3.00000626132492
UNKNOWN                 
1 85004U          26004.76428536  .00001843  00000+0  57697-3 0  9992
2 85004  98.4242 340.4640 0048208  92.9952  26.8824 14.41151319634213
